OBJECT_NAME,OBJECT_ID,EPOCH,MEAN_MOTION,ECCENTRICITY,INCLINATION,RA_OF_ASC_NODE,ARG_OF_PERICENTER,MEAN_ANOMALY,EPHEMERIS_TYPE,CLASSIFICATION_TYPE,NORAD_CAT_ID,ELEMENT_SET_NO,REV_AT_EPOCH,BSTAR,MEAN_MOTION_DOT,MEAN_MOTION_DDOT
SL-16 R/B,1996-051B,2026-06-13T20:16:02.728128,14.12444763,.0015187,70.7639,331.7233,341.9321,18.1257,0,U,24298,999,53522,.86286E-4,.11E-5,0
ORBVIEW 2 (SEASTAR),1997-037A,2026-06-13T11:10:02.993088,14.35551666,.00031027,98.8683,331.3813,123.5053,236.6428,0,U,24883,999,52221,.84741722E-4,.197E-5,0
SL-16 R/B,1998-043G,2026-06-13T20:30:55.044000,14.26068117,.0010927,98.8363,118.9854,94.9944,265.2483,0,U,25400,999,45269,.31808E-4,.31E-6,0
SL-16 R/B,1998-045B,2026-06-13T20:17:35.215872,14.16204338,.0009488,71.0120,339.3576,245.8094,114.2038,0,U,25407,999,44071,-.81344E-4,-.209E-5,0
ISS (ZARYA),1998-067A,2026-06-13T20:02:44.240928,15.49214103,.0004955,51.6333,316.6832,182.4672,177.6293,0,U,25544,999,57123,.16534E-3,.8738E-4,0
CZ-4B R/B,1999-025C,2026-06-13T18:18:43.054848,14.18282912,.0038183,98.6484,206.6876,69.2345,49.0980,0,U,25732,999,40178,.44722E-4,.5E-6,0
OKEAN-O,1999-039A,2026-06-13T18:22:11.690112,14.80463350,.0001704,97.9317,223.6024,74.4316,285.7084,0,U,25860,999,44860,.77116E-4,.538E-5,0
SL-16 R/B,1999-039B,2026-06-13T17:20:54.093120,14.81842113,.0013641,97.9838,223.5957,309.2675,50.7326,0,U,25861,999,45108,.62889E-4,.443E-5,0
DELTA 2 R/B,1999-041E,2026-06-13T13:34:30.495936,14.12010444,.0500866,51.7659,278.2635,271.3092,83.0531,0,U,25876,999,37657,.16702E-3,.803E-5,0
HELIOS 1B,1999-064A,2026-06-13T17:58:45.003936,14.87998726,.0002479,98.1619,69.7894,95.6945,264.4553,0,U,25977,999,69954,.15355E-3,.1351E-4,0
TERRA,1999-068A,2026-06-13T21:19:35.180832,14.61100761,.0001324,97.9457,214.5655,201.8095,331.1346,0,U,25994,999,40912,.83151E-4,.364E-5,0
SL-16 R/B,2000-006B,2026-06-13T16:10:29.542656,14.15834650,.0015333,71.0024,256.0125,28.4887,331.7071,0,U,26070,999,36214,-.85747E-4,-.217E-5,0
TITAN 4B R/B,2000-047B,2026-06-13T19:33:33.231744,15.10180073,.0045639,67.9877,130.0649,290.7011,68.9250,0,U,26474,999,40742,.20448E-3,.329E-4,0
ENVISAT,2002-009A,2026-06-13T20:10:48.861120,14.39064100,.000133,98.3833,116.2338,89.2256,324.9262,0,U,27386,999,27300,.34875E-4,.65E-6,0
IDEFIX & ARIANE 42P R/B,2002-021B,2026-06-13T20:14:35.120256,14.31080718,.0010579,98.5943,102.3628,264.9216,95.0759,0,U,27422,999,25777,.85749E-4,.182E-5,0
AQUA,2002-022A,2026-06-13T21:43:44.768064,14.62153733,.0001228,98.4276,134.1226,53.6532,2.8336,0,U,27424,999,28279,.152E-3,.715E-5,0
CZ-4B R/B,2002-024C,2026-06-13T18:50:08.840256,14.14563777,.0051161,98.8701,217.6271,109.6815,4.3172,0,U,27432,999,24282,.44218E-4,.42E-6,0
MIDORI II (ADEOS-II),2002-056A,2026-06-13T20:21:06.233184,14.29348014,.0002208,98.7877,124.0794,81.2933,278.8499,0,U,27597,999,22403,.10664E-3,.226E-5,0
H-2A R/B,2002-056E,2026-06-13T20:53:01.233024,14.33820787,.0069055,98.3311,121.6656,234.5759,179.3769,0,U,27601,999,22789,.71445E-4,.162E-5,0
CZ-4B R/B,2003-049C,2026-06-13T20:41:00.593952,14.55098187,.0047056,98.6896,163.5759,298.9960,60.6524,0,U,28059,999,20058,.74132E-4,.272E-5,0
CZ-2C R/B,2004-012C,2026-06-13T20:44:18.462048,15.78382930,.0009042,97.7089,240.1417,298.2769,61.7584,0,U,28222,999,21937,.61086E-3,.106264E-2,0
SL-16 R/B,2004-021B,2026-06-13T20:06:27.559008,14.14609849,.0007395,71.0013,30.7193,258.5844,101.4448,0,U,28353,999,13643,-.11872E-3,-.276E-5,0
CZ-4B R/B,2004-035C,2026-06-13T16:01:29.617824,15.30579413,.0030305,97.3368,197.7806,350.8415,9.2270,0,U,28415,999,19458,.26711E-3,.793E-4,0
CZ-2C R/B,2004-046B,2026-06-13T18:08:19.203648,14.27025844,.0138329,98.1948,73.7509,230.4839,128.4048,0,U,28480,999,12220,.38882E-4,.63E-6,0
ARIANE 5 R/B,2004-049H,2026-06-13T11:49:37.966656,14.85444692,.00847405,98.2718,336.6032,41.3034,319.4547,0,U,28499,999,16001,.76186918E-4,.636E-5,0
CZ-2D R/B,2005-024B,2026-06-13T18:37:41.846592,15.69205166,.0003944,97.3480,184.0345,61.3397,298.8261,0,U,28738,999,15480,.51121E-3,.59585E-3,0
ALOS (DAICHI),2006-002A,2026-06-13T21:23:39.263424,14.70044396,.0001578,98.1323,120.4691,58.4799,301.6560,0,U,28931,999,8761,.17225E-3,.984E-5,0
H-2A R/B,2006-002B,2026-06-13T16:37:41.903040,15.18021573,.0049573,98.2553,320.2061,274.5379,85.0190,0,U,28932,999,10899,.33755E-3,.7007E-4,0
RESURS-DK 1,2006-021A,2026-06-13T20:41:50.908992,15.13205333,.0006801,69.9339,348.1592,294.2665,65.7790,0,U,29228,999,10207,.15203E-3,.2599E-4,0
CZ-4B R/B,2006-046C,2026-06-13T16:37:33.772800,15.17760414,.0031087,97.5456,209.3104,295.5237,64.2782,0,U,29507,999,7460,.19611E-3,.3937E-4,0
CZ-2C R/B,2007-010B,2026-06-13T19:39:47.284128,14.20275532,.005923,98.4095,273.3350,15.8998,344.4021,0,U,31114,999,99336,.49953E-4,.68E-6,0
