SL-16 R/B               
1 24298U 96051B   26164.84447602  .00000110  00000+0  86286-4 0  9995
2 24298  70.7639 331.7233 0015187 341.9321  18.1257 14.12444763535223
ORBVIEW 2 (SEASTAR)     
1 24883U 97037A   26164.46531242  .00000197  00000+0  84742-4 0  9992
2 24883  98.8683 331.3813 0003102 123.5053 236.6428 14.35551666522211
SL-16 R/B               
1 25400U 98043G   26164.85480375  .00000031  00000+0  31808-4 0  9991
2 25400  98.8363 118.9854 0010927  94.9944 265.2483 14.26068117452696
SL-16 R/B               
1 25407U 98045B   26164.84554648 -.00000209  00000+0 -81344-4 0  9993
2 25407  71.0120 339.3576 0009488 245.8094 114.2038 14.16204338440715
ISS (ZARYA)             
1 25544U 98067A   26164.83523427  .00008738  00000+0  16534-3 0  9990
2 25544  51.6333 316.6832 0004955 182.4672 177.6293 15.49214103571238
CZ-4B R/B               
1 25732U 99025C   26164.76299832  .00000050  00000+0  44722-4 0  9996
2 25732  98.6484 206.6876 0038183  69.2345  49.0980 14.18282912401785
OKEAN-O                 
1 25860U 99039A   26164.76541308  .00000538  00000+0  77116-4 0  9995
2 25860  97.9317 223.6024 0001704  74.4316 285.7084 14.80463350448605
SL-16 R/B               
1 25861U 99039B   26164.72284830  .00000443  00000+0  62889-4 0  9992
2 25861  97.9838 223.5957 0013641 309.2675  50.7326 14.81842113451082
DELTA 2 R/B             
1 25876U 99041E   26164.56563074  .00000803  00000+0  16702-3 0  9995
2 25876  51.7659 278.2635 0500866 271.3092  83.0531 14.12010444376574
HELIOS 1B               
1 25977U 99064A   26164.74913199  .00001351  00000+0  15355-3 0  9991
2 25977  98.1619  69.7894 0002479  95.6945 264.4553 14.87998726699542
TERRA                   
1 25994U 99068A   26164.88860163  .00000364  00000+0  83151-4 0  9994
2 25994  97.9457 214.5655 0001324 201.8095 331.1346 14.61100761409129
SL-16 R/B               
1 26070U 00006B   26164.67395304 -.00000217  00000+0 -85747-4 0  9993
2 26070  71.0024 256.0125 0015333  28.4887 331.7071 14.15834650362149
TITAN 4B R/B            
1 26474U 00047B   26164.81496796  .00003290  00000+0  20448-3 0  9997
2 26474  67.9877 130.0649 0045639 290.7011  68.9250 15.10180073407422
ENVISAT                 
1 27386U 02009A   26164.84084330  .00000065  00000+0  34875-4 0  9997
2 27386  98.3833 116.2338 0001330  89.2256 324.9262 14.39064100273003
IDEFIX & ARIANE 42P R/B 
1 27422U 02021B   26164.84346204  .00000182  00000+0  85749-4 0  9999
2 27422  98.5943 102.3628 0010579 264.9216  95.0759 14.31080718257777
AQUA                    
1 27424U 02022A   26164.90537926  .00000715  00000+0  15200-3 0  9998
2 27424  98.4276 134.1226 0001228  53.6532   2.8336 14.62153733282798
CZ-4B R/B               
1 27432U 02024C   26164.78482454  .00000042  00000+0  44218-4 0  9995
2 27432  98.8701 217.6271 0051161 109.6815   4.3172 14.14563777242823
MIDORI II (ADEOS-II)    
1 27597U 02056A   26164.84798881  .00000226  00000+0  10664-3 0  9994
2 27597  98.7877 124.0794 0002208  81.2933 278.8499 14.29348014224037
H-2A R/B                
1 27601U 02056E   26164.87015316  .00000162  00000+0  71445-4 0  9992
2 27601  98.3311 121.6656 0069055 234.5759 179.3769 14.33820787227893
CZ-4B R/B               
1 28059U 03049C   26164.86181243  .00000272  00000+0  74132-4 0  9993
2 28059  98.6896 163.5759 0047056 298.9960  60.6524 14.55098187200589
CZ-2C R/B               
1 28222U 04012C   26164.86410257  .00106264  00000+0  61086-3 0  9997
2 28222  97.7089 240.1417 0009042 298.2769  61.7584 15.78382930219374
SL-16 R/B               
1 28353U 04021B   26164.83781897 -.00000276  00000+0 -11872-3 0  9996
2 28353  71.0013  30.7193 0007395 258.5844 101.4448 14.14609849136433
CZ-4B R/B               
1 28415U 04035C   26164.66770391  .00007930  00000+0  26711-3 0  9998
2 28415  97.3368 197.7806 0030305 350.8415   9.2270 15.30579413194588
CZ-2C R/B               
1 28480U 04046B   26164.75577782  .00000063  00000+0  38882-4 0  9994
2 28480  98.1948  73.7509 0138329 230.4839 128.4048 14.27025844122200
ARIANE 5 R/B            
1 28499U 04049H   26164.49280054  .00000636  00000+0  76187-4 0  9997
2 28499  98.2718 336.6032 0084740  41.3034 319.4547 14.85444692160018
CZ-2D R/B               
1 28738U 05024B   26164.77617878  .00059585  00000+0  51121-3 0  9993
2 28738  97.3480 184.0345 0003944  61.3397 298.8261 15.69205166154800
ALOS (DAICHI)           
1 28931U 06002A   26164.89142666  .00000984  00000+0  17225-3 0  9992
2 28931  98.1323 120.4691 0001578  58.4799 301.6560 14.70044396 87618
H-2A R/B                
1 28932U 06002B   26164.69284610  .00007007  00000+0  33755-3 0  9996
2 28932  98.2553 320.2061 0049573 274.5379  85.0190 15.18021573108990
RESURS-DK 1             
1 29228U 06021A   26164.86239478  .00002599  00000+0  15203-3 0  9996
2 29228  69.9339 348.1592 0006801 294.2665  65.7790 15.13205333102075
CZ-4B R/B               
1 29507U 06046C   26164.69275200  .00003937  00000+0  19611-3 0  9991
2 29507  97.5456 209.3104 0031087 295.5237  64.2782 15.17760414 74604
CZ-2C R/B               
1 31114U 07010B   26164.81929727  .00000068  00000+0  49953-4 0  9999
2 31114  98.4095 273.3350 0059230  15.8998 344.4021 14.20275532993368
